start=new Date('2022-01-22T00:00:00.000Z').valueOf();
sats=[{"REV_AT_EPOCH":"1221","MEAN_ANOMALY":"7.5246","SITE":"AFETR","MEAN_ELEMENT_THEORY":"SGP4","COUNTRY_CODE":"US","ARG_OF_PERICENTER":"6.7186","NORAD_CAT_ID":"49439","SEMIMAJOR_AXIS":"6727.899","OBJECT_ID":"2021-104AH","PERIOD":"91.533","ELEMENT_SET_NO":"999","RCS_SIZE":"LARGE","PERIAPSIS":"346.881","BSTAR":"0.00013725000000","MEAN_MOTION":"15.73198685","TLE_LINE2":"2 49439  53.2157 149.6505 0004285   6.7186   7.5246 15.73198685 12214","REF_FRAME":"TEME","APOAPSIS":"352.647","EPHEMERIS_TYPE":"0","GP_ID":"194336560","CLASSIFICATION_TYPE":"U","FILE":"3279514","LAUNCH_DATE":"2021-11-13","CENTER_NAME":"EARTH","OBJECT_TYPE":"PAYLOAD","TIME_SYSTEM":"UTC","DECAY_DATE":null,"INCLINATION":"53.2157","RA_OF_ASC_NODE":"149.6505","TLE_LINE1":"1 49439U 21104AH  22021.91667824  .00018688  00000-0  13725-3 0  9999","ECCENTRICITY":"0.00042850","MEAN_MOTION_DDOT":"0.0000000000000","EPOCH":"2022-01-21T22:00:00.999936","OBJECT_NAME":"STARLINK-3108","MEAN_MOTION_DOT":"0.00018688"},{"CLASSIFICATION_TYPE":"U","GP_ID":"194336570","EPHEMERIS_TYPE":"0","ELEMENT_SET_NO":"999","PERIOD":"91.533","PERIAPSIS":"347.160","RCS_SIZE":"LARGE","MEAN_MOTION":"15.73201455","BSTAR":"0.00015128000000","APOAPSIS":"352.352","REF_FRAME":"TEME","TLE_LINE2":"2 49440  53.2155 149.6571 0003859   7.4246   2.9887 15.73201455 12195","SEMIMAJOR_AXIS":"6727.891","OBJECT_ID":"2021-104AJ","REV_AT_EPOCH":"1219","SITE":"AFETR","MEAN_ANOMALY":"2.9887","COUNTRY_CODE":"US","MEAN_ELEMENT_THEORY":"SGP4","NORAD_CAT_ID":"49440","ARG_OF_PERICENTER":"7.4246","EPOCH":"2022-01-21T22:00:00.999936","OBJECT_NAME":"STARLINK-3105","MEAN_MOTION_DOT":"0.00020668","RA_OF_ASC_NODE":"149.6571","TLE_LINE1":"1 49440U 21104AJ  22021.91667824  .00020668  00000-0  15128-3 0  9991","MEAN_MOTION_DDOT":"0.0000000000000","ECCENTRICITY":"0.00038590","OBJECT_TYPE":"PAYLOAD","CENTER_NAME":"EARTH","LAUNCH_DATE":"2021-11-13","FILE":"3279515","TIME_SYSTEM":"UTC","DECAY_DATE":null,"INCLINATION":"53.2155"},{"REV_AT_EPOCH":"367","COUNTRY_CODE":"US","MEAN_ELEMENT_THEORY":"SGP4","NORAD_CAT_ID":"49441","ARG_OF_PERICENTER":"6.3161","MEAN_ANOMALY":"279.9647","SITE":"AFETR","SEMIMAJOR_AXIS":"6727.945","OBJECT_ID":"2021-104AK","PERIAPSIS":"347.261","RCS_SIZE":"LARGE","ELEMENT_SET_NO":"999","PERIOD":"91.534","APOAPSIS":"352.359","REF_FRAME":"TEME","TLE_LINE2":"2 49441  53.2168 151.3038 0003788   6.3161 279.9647 15.73182517  3673","MEAN_MOTION":"15.73182517","BSTAR":"0.00002292200000","CLASSIFICATION_TYPE":"U","GP_ID":"194330198","EPHEMERIS_TYPE":"0","TIME_SYSTEM":"UTC","OBJECT_TYPE":"PAYLOAD","CENTER_NAME":"EARTH","FILE":"3279324","LAUNCH_DATE":"2021-11-13","DECAY_DATE":null,"INCLINATION":"53.2168","MEAN_MOTION_DDOT":"0.0000000000000","ECCENTRICITY":"0.00037880","TLE_LINE1":"1 49441U 21104AK  22021.58334491  .00002593  00000-0  22922-4 0  9994","RA_OF_ASC_NODE":"151.3038","OBJECT_NAME":"STARLINK-3128","EPOCH":"2022-01-21T14:00:01.000224","MEAN_MOTION_DOT":"0.00002593"},{"MEAN_ANOMALY":"359.5776","SITE":"AFETR","COUNTRY_CODE":"US","MEAN_ELEMENT_THEORY":"SGP4","ARG_OF_PERICENTER":"11.9158","NORAD_CAT_ID":"49442","REV_AT_EPOCH":"1220","SEMIMAJOR_AXIS":"6727.864","OBJECT_ID":"2021-104AL","MEAN_MOTION":"15.73210784","BSTAR":"0.00014086000000","REF_FRAME":"TEME","APOAPSIS":"352.370","TLE_LINE2":"2 49442  53.2162 149.6619 0003925  11.9158 359.5776 15.73210784 12209","ELEMENT_SET_NO":"999","PERIOD":"91.533","PERIAPSIS":"347.089","RCS_SIZE":"LARGE","GP_ID":"194338024","CLASSIFICATION_TYPE":"U","EPHEMERIS_TYPE":"0","DECAY_DATE":null,"INCLINATION":"53.2162","OBJECT_TYPE":"PAYLOAD","CENTER_NAME":"EARTH","FILE":"3279571","LAUNCH_DATE":"2021-11-13","TIME_SYSTEM":"UTC","RA_OF_ASC_NODE":"149.6619","TLE_LINE1":"1 49442U 21104AL  22021.91667824  .00019206  00000-0  14086-3 0  9991","MEAN_MOTION_DDOT":"0.0000000000000","ECCENTRICITY":"0.00039250","MEAN_MOTION_DOT":"0.00019206","EPOCH":"2022-01-21T22:00:00.999936","OBJECT_NAME":"STARLINK-3098"},{"INCLINATION":"53.2163","DECAY_DATE":null,"FILE":"3279324","LAUNCH_DATE":"2021-11-13","CENTER_NAME":"EARTH","OBJECT_TYPE":"PAYLOAD","TIME_SYSTEM":"UTC","RA_OF_ASC_NODE":"151.2965","TLE_LINE1":"1 49443U 21104AM  22021.58334491  .00001739  00000-0  16836-4 0  9994","ECCENTRICITY":"0.00038280","MEAN_MOTION_DDOT":"0.0000000000000","MEAN_MOTION_DOT":"0.00001739","EPOCH":"2022-01-21T14:00:01.000224","OBJECT_NAME":"STARLINK-3136","MEAN_ANOMALY":"278.7980","SITE":"AFETR","COUNTRY_CODE":"US","MEAN_ELEMENT_THEORY":"SGP4","ARG_OF_PERICENTER":"8.4663","NORAD_CAT_ID":"49443","REV_AT_EPOCH":"367","SEMIMAJOR_AXIS":"6727.916","OBJECT_ID":"2021-104AM","BSTAR":"0.00001683600000","MEAN_MOTION":"15.73192644","TLE_LINE2":"2 49443  53.2163 151.2965 0003828   8.4663 278.7980 15.73192644  3672","APOAPSIS":"352.357","REF_FRAME":"TEME","PERIOD":"91.534","ELEMENT_SET_NO":"999","PERIAPSIS":"347.206","RCS_SIZE":"LARGE","EPHEMERIS_TYPE":"0","GP_ID":"194331702","CLASSIFICATION_TYPE":"U"},{"MEAN_MOTION_DDOT":"0.0000000000000","ECCENTRICITY":"0.00036580","TLE_LINE1":"1 49444U 21104AN  22021.58334491  .00002561  00000-0  22701-4 0  9997","RA_OF_ASC_NODE":"151.3043","TIME_SYSTEM":"UTC","CENTER_NAME":"EARTH","OBJECT_TYPE":"PAYLOAD","LAUNCH_DATE":"2021-11-13","FILE":"3279324","INCLINATION":"53.2162","DECAY_DATE":null,"EPOCH":"2022-01-21T14:00:01.000224","OBJECT_NAME":"STARLINK-3126","MEAN_MOTION_DOT":"0.00002561","OBJECT_ID":"2021-104AN","SEMIMAJOR_AXIS":"6727.956","REV_AT_EPOCH":"370","MEAN_ELEMENT_THEORY":"SGP4","COUNTRY_CODE":"US","NORAD_CAT_ID":"49444","ARG_OF_PERICENTER":"12.5583","SITE":"AFETR","MEAN_ANOMALY":"270.9111","CLASSIFICATION_TYPE":"U","GP_ID":"194329953","EPHEMERIS_TYPE":"0","RCS_SIZE":"LARGE","PERIAPSIS":"347.360","ELEMENT_SET_NO":"999","PERIOD":"91.534","APOAPSIS":"352.282","REF_FRAME":"TEME","TLE_LINE2":"2 49444  53.2162 151.3043 0003658  12.5583 270.9111 15.73178790  3708","MEAN_MOTION":"15.73178790","BSTAR":"0.00002270100000"},{"TLE_LINE2":"2 49445  53.2173 153.1248 0002019  26.9066  50.4628 15.47812231  3680","REF_FRAME":"TEME","APOAPSIS":"424.503","BSTAR":"-0.01350500000000","MEAN_MOTION":"15.47812231","RCS_SIZE":"LARGE","PERIAPSIS":"421.756","PERIOD":"93.035","ELEMENT_SET_NO":"999","EPHEMERIS_TYPE":"0","GP_ID":"194330698","CLASSIFICATION_TYPE":"U","COUNTRY_CODE":"US","ARG_OF_PERICENTER":"26.9066","MEAN_ELEMENT_THEORY":"SGP4","NORAD_CAT_ID":"49445","MEAN_ANOMALY":"50.4628","SITE":"AFETR","REV_AT_EPOCH":"368","SEMIMAJOR_AXIS":"6801.264","OBJECT_ID":"2021-104AP","MEAN_MOTION_DOT":"-0.00656155","EPOCH":"2022-01-21T14:00:01.000224","OBJECT_NAME":"STARLINK-3122","INCLINATION":"53.2173","DECAY_DATE":null,"TIME_SYSTEM":"UTC","FILE":"3279324","LAUNCH_DATE":"2021-11-13","CENTER_NAME":"EARTH","OBJECT_TYPE":"PAYLOAD","ECCENTRICITY":"0.00020190","MEAN_MOTION_DDOT":"0.0000000000000","TLE_LINE1":"1 49445U 21104AP  22021.58334491 -.00656155  00000-0 -13505-1 0  9993","RA_OF_ASC_NODE":"153.1248"},{"OBJECT_TYPE":"PAYLOAD","CENTER_NAME":"EARTH","FILE":"3279572","LAUNCH_DATE":"2021-11-13","TIME_SYSTEM":"UTC","INCLINATION":"53.2157","DECAY_DATE":null,"RA_OF_ASC_NODE":"149.6527","TLE_LINE1":"1 49446U 21104AQ  22021.91667824  .00022484  00000-0  16399-3 0  9996","MEAN_MOTION_DDOT":"0.0000000000000","ECCENTRICITY":"0.00039010","OBJECT_NAME":"STARLINK-3099","EPOCH":"2022-01-21T22:00:00.999936","MEAN_MOTION_DOT":"0.00022484","REV_AT_EPOCH":"1219","MEAN_ANOMALY":"7.5715","SITE":"AFETR","COUNTRY_CODE":"US","MEAN_ELEMENT_THEORY":"SGP4","ARG_OF_PERICENTER":"5.6795","NORAD_CAT_ID":"49446","OBJECT_ID":"2021-104AQ","SEMIMAJOR_AXIS":"6727.829","ELEMENT_SET_NO":"999","PERIOD":"91.532","RCS_SIZE":"LARGE","PERIAPSIS":"347.070","MEAN_MOTION":"15.73223105","BSTAR":"0.00016399000000","APOAPSIS":"352.319","REF_FRAME":"TEME","TLE_LINE2":"2 49446  53.2157 149.6527 0003901   5.6795   7.5715 15.73223105 12198","GP_ID":"194338042","CLASSIFICATION_TYPE":"U","EPHEMERIS_TYPE":"0"},{"CLASSIFICATION_TYPE":"U","GP_ID":"194331203","EPHEMERIS_TYPE":"0","RCS_SIZE":"LARGE","PERIAPSIS":"421.243","ELEMENT_SET_NO":"999","PERIOD":"93.021","REF_FRAME":"TEME","APOAPSIS":"423.702","TLE_LINE2":"2 49447  53.2173 153.1216 0001808  33.2458  61.5422 15.48036585  3695","MEAN_MOTION":"15.48036585","BSTAR":"-0.01339100000000","SEMIMAJOR_AXIS":"6800.607","OBJECT_ID":"2021-104AR","REV_AT_EPOCH":"369","COUNTRY_CODE":"US","ARG_OF_PERICENTER":"33.2458","MEAN_ELEMENT_THEORY":"SGP4","NORAD_CAT_ID":"49447","MEAN_ANOMALY":"61.5422","SITE":"AFETR","OBJECT_NAME":"STARLINK-3115","EPOCH":"2022-01-21T14:00:01.000224","MEAN_MOTION_DOT":"-0.00655755","MEAN_MOTION_DDOT":"0.0000000000000","ECCENTRICITY":"0.00018080","TLE_LINE1":"1 49447U 21104AR  22021.58334491 -.00655755  00000-0 -13391-1 0  9993","RA_OF_ASC_NODE":"153.1216","TIME_SYSTEM":"UTC","OBJECT_TYPE":"PAYLOAD","CENTER_NAME":"EARTH","LAUNCH_DATE":"2021-11-13","FILE":"3279324","INCLINATION":"53.2173","DECAY_DATE":null},{"ECCENTRICITY":"0.00022300","MEAN_MOTION_DDOT":"0.0000000000000","RA_OF_ASC_NODE":"153.1254","TLE_LINE1":"1 49448U 21104AS  22021.58334491 -.00656343  00000-0 -13563-1 0  9999","DECAY_DATE":null,"INCLINATION":"53.2173","TIME_SYSTEM":"UTC","LAUNCH_DATE":"2021-11-13","FILE":"3279324","OBJECT_TYPE":"PAYLOAD","CENTER_NAME":"EARTH","MEAN_MOTION_DOT":"-0.00656343","EPOCH":"2022-01-21T14:00:01.000224","OBJECT_NAME":"STARLINK-3097","SEMIMAJOR_AXIS":"6801.601","OBJECT_ID":"2021-104AS","COUNTRY_CODE":"US","MEAN_ELEMENT_THEORY":"SGP4","NORAD_CAT_ID":"49448","ARG_OF_PERICENTER":"22.4757","MEAN_ANOMALY":"46.4186","SITE":"AFETR","REV_AT_EPOCH":"368","EPHEMERIS_TYPE":"0","CLASSIFICATION_TYPE":"U","GP_ID":"194330453","TLE_LINE2":"2 49448  53.2173 153.1254 0002230  22.4757  46.4186 15.47697191  3683","REF_FRAME":"TEME","APOAPSIS":"424.983","BSTAR":"-0.01356300000000","MEAN_MOTION":"15.47697191","PERIAPSIS":"421.950","RCS_SIZE":"LARGE","PERIOD":"93.041","ELEMENT_SET_NO":"999"}];
